[
    {
        "Altitude(m)": 624790.8214843064,
        "Argument of Periapsis(deg)": 0.0,
        "Eccentricity": 0.0,
        "Inclination(deg)": 60.0,
        "Latitude(deg)": -59.14719569459199,
        "Longitude(deg)": -23.965229554897746,
        "Mean Anomaly(deg)": -81.81819999999999,
        "RAAN(deg)": 150.0,
        "Satellite Name": "Test1 677",
        "Satellite Number": 677,
        "Semi-Major Axis(m)": 6980739.136638005,
        "Time(s)": 0
    },
    {
        "Altitude(m)": 624737.4759867548,
        "Argument of Periapsis(deg)": 0.00010418945913296404,
        "Eccentricity": 0.0,
        "Inclination(deg)": 60.0,
        "Latitude(deg)": -58.99464889955031,
        "Longitude(deg)": -22.845725945206457,
        "Mean Anomaly(deg)": -81.19809385453813,
        "RAAN(deg)": 149.99957995086027,
        "Satellite Name": "Test1 677",
        "Satellite Number": 677,
        "Semi-Major Axis(m)": 6980739.136638005,
        "Time(s)": 10
    },
    {
        "Altitude(m)": 624680.3468940775,
        "Argument of Periapsis(deg)": 0.0002083789182659281,
        "Eccentricity": 0.0,
        "Inclination(deg)": 60.0,
        "Latitude(deg)": -58.83179049757748,
        "Longitude(deg)": -21.736774890324398,
        "Mean Anomaly(deg)": -80.57798770907635,
        "RAAN(deg)": 149.99915990172053,
        "Satellite Name": "Test1 677",
        "Satellite Number": 677,
        "Semi-Major Axis(m)": 6980739.136638005,
        "Time(s)": 20
    },
    {
        "Altitude(m)": 624619.4566719234,
        "Argument of Periapsis(deg)": 0.00031256837739889213,
        "Eccentricity": 0.0,
        "Inclination(deg)": 60.0,
        "Latitude(deg)": -58.65878112774286,
        "Longitude(deg)": -20.63888446356975,
        "Mean Anomaly(deg)": -79.9578815636145,
        "RAAN(deg)": 149.99873985258077,
        "Satellite Name": "Test1 677",
        "Satellite Number": 677,
        "Semi-Major Axis(m)": 6980739.136638005,
        "Time(s)": 30
    },
    {
        "Altitude(m)": 624554.8292630084,
        "Argument of Periapsis(deg)": 0.0004167578365318562,
        "Eccentricity": 0.0,
        "Inclination(deg)": 60.0,
        "Latitude(deg)": -58.47578781355148,
        "Longitude(deg)": -19.55252263449555,
        "Mean Anomaly(deg)": -79.33777541815273,
        "RAAN(deg)": 149.99831980344103,
        "Satellite Name": "Test1 677",
        "Satellite Number": 677,
        "Semi-Major Axis(m)": 6980739.136638005,
        "Time(s)": 40
    },
    {
        "Altitude(m)": 624486.4900770374,
        "Argument of Periapsis(deg)": 0.0005209472956648203,
        "Eccentricity": 0.0,
        "Inclination(deg)": 60.0,
        "Latitude(deg)": -58.28298326035494,
        "Longitude(deg)": -18.47811803166208,
        "Mean Anomaly(deg)": -78.71766927269087,
        "RAAN(deg)": 149.9978997543013,
        "Satellite Name": "Test1 677",
        "Satellite Number": 677,
        "Semi-Major Axis(m)": 6980739.136638005,
        "Time(s)": 50
    },
    {
        "Altitude(m)": 624414.4659799658,
        "Argument of Periapsis(deg)": 0.0006251367547977843,
        "Eccentricity": 0.0,
        "Inclination(deg)": 60.0,
        "Latitude(deg)": -58.08054515872321,
        "Longitude(deg)": -17.416059477003078,
        "Mean Anomaly(deg)": -78.09756312722905,
        "RAAN(deg)": 149.99747970516157,
        "Satellite Name": "Test1 677",
        "Satellite Number": 677,
        "Semi-Major Axis(m)": 6980739.136638005,
        "Time(s)": 60
    },
    {
        "Altitude(m)": 624338.7852826768,
        "Argument of Periapsis(deg)": 0.0007293262139307483,
        "Eccentricity": 0.0,
        "Inclination(deg)": 60.0,
        "Latitude(deg)": -57.86865549904755,
        "Longitude(deg)": -16.366695785127934,
        "Mean Anomaly(deg)": -77.47745698176719,
        "RAAN(deg)": 149.9970596560218,
        "Satellite Name": "Test1 677",
        "Satellite Number": 677,
        "Semi-Major Axis(m)": 6980739.136638005,
        "Time(s)": 70
    },
    {
        "Altitude(m)": 624259.4777290263,
        "Argument of Periapsis(deg)": 0.0008335156730637124,
        "Eccentricity": 0.0,
        "Inclination(deg)": 60.0,
        "Latitude(deg)": -57.647499902125446,
        "Longitude(deg)": -15.330337318777486,
        "Mean Anomaly(deg)": -76.85735083630537,
        "RAAN(deg)": 149.99663960688207,
        "Satellite Name": "Test1 677",
        "Satellite Number": 677,
        "Semi-Major Axis(m)": 6980739.136638005,
        "Time(s)": 80
    },
    {
        "Altitude(m)": 624176.5744832805,
        "Argument of Periapsis(deg)": 0.0009377051321966765,
        "Eccentricity": 0.0,
        "Inclination(deg)": 60.0,
        "Latitude(deg)": -57.4172669699173,
        "Longitude(deg)": -14.307256251486162,
        "Mean Anomaly(deg)": -76.23724469084351,
        "RAAN(deg)": 149.99621955774234,
        "Satellite Name": "Test1 677",
        "Satellite Number": 677,
        "Semi-Major Axis(m)": 6980739.136638005,
        "Time(s)": 90
    },
    {
        "Altitude(m)": 624090.1081169497,
        "Argument of Periapsis(deg)": 0.0010418945913296407,
        "Eccentricity": 0.0,
        "Inclination(deg)": 60.0,
        "Latitude(deg)": -57.17814766010798,
        "Longitude(deg)": -13.297687026158833,
        "Mean Anomaly(deg)": -75.61713854538168,
        "RAAN(deg)": 149.9957995086026,
        "Satellite Name": "Test1 677",
        "Satellite Number": 677,
        "Semi-Major Axis(m)": 6980739.136638005,
        "Time(s)": 100
    },
    {
        "Altitude(m)": 624000.1125950206,
        "Argument of Periapsis(deg)": 0.0011460840504626045,
        "Eccentricity": 0.0,
        "Inclination(deg)": 60.0,
        "Latitude(deg)": -56.9303346875366,
        "Longitude(deg)": -12.301828497828277,
        "Mean Anomaly(deg)": -74.99703239991987,
        "RAAN(deg)": 149.99537945946284,
        "Satellite Name": "Test1 677",
        "Satellite Number": 677,
        "Semi-Major Axis(m)": 6980739.136638005,
        "Time(s)": 110
    },
    {
        "Altitude(m)": 623906.6232615834,
        "Argument of Periapsis(deg)": 0.0012502735095955685,
        "Eccentricity": 0.0,
        "Inclination(deg)": 60.0,
        "Latitude(deg)": -56.67402195499097,
        "Longitude(deg)": -11.319844710264459,
        "Mean Anomaly(deg)": -74.376926254458,
        "RAAN(deg)": 149.9949594103231,
        "Satellite Name": "Test1 677",
        "Satellite Number": 677,
        "Semi-Major Axis(m)": 6980739.136638005,
        "Time(s)": 120
    },
    {
        "Altitude(m)": 623809.6768248961,
        "Argument of Periapsis(deg)": 0.0013544629687285324,
        "Eccentricity": 0.0,
        "Inclination(deg)": 60.0,
        "Latitude(deg)": -56.40940401533145,
        "Longitude(deg)": -10.351865795187356,
        "Mean Anomaly(deg)": -73.75682010899625,
        "RAAN(deg)": 149.99453936118334,
        "Satellite Name": "Test1 677",
        "Satellite Number": 677,
        "Semi-Major Axis(m)": 6980739.136638005,
        "Time(s)": 130
    },
    {
        "Altitude(m)": 623709.3113418233,
        "Argument of Periapsis(deg)": 0.0014586524278614966,
        "Eccentricity": 0.0,
        "Inclination(deg)": 60.0,
        "Latitude(deg)": -56.13667556639453,
        "Longitude(deg)": -9.397990483642129,
        "Mean Anomaly(deg)": -73.13671396353436,
        "RAAN(deg)": 149.9941193120436,
        "Satellite Name": "Test1 677",
        "Satellite Number": 677,
        "Semi-Major Axis(m)": 6980739.136638005,
        "Time(s)": 140
    },
    {
        "Altitude(m)": 623605.5662017305,
        "Argument of Periapsis(deg)": 0.0015628418869944607,
        "Eccentricity": 0.0,
        "Inclination(deg)": 60.0,
        "Latitude(deg)": -55.85603097964139,
        "Longitude(deg)": -8.458287181587451,
        "Mean Anomaly(deg)": -72.51660781807257,
        "RAAN(deg)": 149.99369926290387,
        "Satellite Name": "Test1 677",
        "Satellite Number": 677,
        "Semi-Major Axis(m)": 6980739.136638005,
        "Time(s)": 150
    },
    {
        "Altitude(m)": 623498.4821097819,
        "Argument of Periapsis(deg)": 0.0016670313461274247,
        "Eccentricity": 0.0,
        "Inclination(deg)": 60.0,
        "Latitude(deg)": -55.56766386308105,
        "Longitude(deg)": -7.532795101708428,
        "Mean Anomaly(deg)": -71.89650167261074,
        "RAAN(deg)": 149.99327921376414,
        "Satellite Name": "Test1 677",
        "Satellite Number": 677,
        "Semi-Major Axis(m)": 6980739.136638005,
        "Time(s)": 160
    },
    {
        "Altitude(m)": 623388.1010696841,
        "Argument of Periapsis(deg)": 0.0017712208052603888,
        "Eccentricity": 0.0,
        "Inclination(deg)": 60.0,
        "Latitude(deg)": -55.27176665860162,
        "Longitude(deg)": -6.621526944996085,
        "Mean Anomaly(deg)": -71.27639552714889,
        "RAAN(deg)": 149.99285916462438,
        "Satellite Name": "Test1 677",
        "Satellite Number": 677,
        "Semi-Major Axis(m)": 6980739.136638005,
        "Time(s)": 170
    },
    {
        "Altitude(m)": 623274.4663658671,
        "Argument of Periapsis(deg)": 0.001875410264393353,
        "Eccentricity": 0.0,
        "Inclination(deg)": 60.0,
        "Latitude(deg)": -54.968530273477555,
        "Longitude(deg)": -5.724470088649767,
        "Mean Anomaly(deg)": -70.65628938168706,
        "RAAN(deg)": 149.99243911548464,
        "Satellite Name": "Test1 677",
        "Satellite Number": 677,
        "Semi-Major Axis(m)": 6980739.136638005,
        "Time(s)": 180
    },
    {
        "Altitude(m)": 623157.6225450996,
        "Argument of Periapsis(deg)": 0.0019795997235263173,
        "Eccentricity": 0.0,
        "Inclination(deg)": 60.0,
        "Latitude(deg)": -54.658143745518835,
        "Longitude(deg)": -4.8415877772044995,
        "Mean Anomaly(deg)": -70.03618323622526,
        "RAAN(deg)": 149.9920190663449,
        "Satellite Name": "Test1 677",
        "Satellite Number": 677,
        "Semi-Major Axis(m)": 6980739.136638005,
        "Time(s)": 190
    }
]